{"type": "FeatureCollection", "features": [ {"type": "Feature", "properties": {"norad_id": 30543, "name": "FENGYUN 1C DEB", "group": "fengyun-1c-debris", "lat": -63.47897592814422, "lon": 150.10075299898264, "alt_km": 940.3777510477794, "timestamp": "2025-12-04T10:51:50.382580+00:00", "meta": {"OBJECT_NAME": "FENGYUN 1C DEB", "OBJECT_ID": "1999-025AKH", "EPOCH": "2025-12-03T16:54:35.191872", "MEAN_MOTION": 14.03726073, "ECCENTRICITY": 0.00728087, "INCLINATION": 98.8328, "RA_OF_ASC_NODE": 347.5286, "ARG_OF_PERICENTER": 58.6224, "MEAN_ANOMALY": 8.0069, "EPHEMERIS_TYPE": 0, "CLASSIFICATION_TYPE": "U", "NORAD_CAT_ID": 30543, "ELEMENT_SET_NO": 999, "REV_AT_EPOCH": 96378, "BSTAR": 0.0003489671, "MEAN_MOTION_DOT": 5.2e-06, "MEAN_MOTION_DDOT": 0}, "tle": {"line1": "1 30543U 99025AKH 25337.70457398  .00000520  00000+0  34897-3 0  9993", "line2": "2 30543  98.8328 347.5286 0072808  58.6224   8.0069 14.03726073963781"}}, "geometry": {"type": "Point", "coordinates": [150.10075299898264, -63.47897592814422]}}, {"type": "Feature", "properties": {"norad_id": 30545, "name": "FENGYUN 1C DEB", "group": "fengyun-1c-debris", "lat": -5.793276485703594, "lon": 10.865608543014913, "alt_km": 1505.6756327089142, "timestamp": "2025-12-04T10:51:50.382590+00:00", "meta": {"OBJECT_NAME": "FENGYUN 1C DEB", "OBJECT_ID": "1999-025AKK", "EPOCH": "2025-12-02T12:30:10.010016", "MEAN_MOTION": 13.20769856, "ECCENTRICITY": 0.04729004, "INCLINATION": 99.0011, "RA_OF_ASC_NODE": 190.1208, "ARG_OF_PERICENTER": 35.6122, "MEAN_ANOMALY": 327.5604, "EPHEMERIS_TYPE": 0, "CLASSIFICATION_TYPE": "U", "NORAD_CAT_ID": 30545, "ELEMENT_SET_NO": 999, "REV_AT_EPOCH": 90795, "BSTAR": 0.00063912864, "MEAN_MOTION_DOT": 4.33e-06, "MEAN_MOTION_DDOT": 0}, "tle": {"line1": "1 30545U 99025AKK 25336.52094919  .00000433  00000+0  63913-3 0  9994", "line2": "2 30545  99.0011 190.1208 0472900  35.6122 327.5604 13.20769856907955"}}, "geometry": {"type": "Point", "coordinates": [10.865608543014913, -5.793276485703594]}}, {"type": "Feature", "properties": {"norad_id": 30546, "name": "FENGYUN 1C DEB", "group": "fengyun-1c-debris", "lat": 28.16974168405188, "lon": -171.35437666158884, "alt_km": 667.10730820138, "timestamp": "2025-12-04T10:51:50.382600+00:00", "meta": {"OBJECT_NAME": "FENGYUN 1C DEB", "OBJECT_ID": "1999-025AKL", "EPOCH": "2025-12-02T20:01:23.061216", "MEAN_MOTION": 14.86883677, "ECCENTRICITY": 0.00924366, "INCLINATION": 98.9091, "RA_OF_ASC_NODE": 191.6508, "ARG_OF_PERICENTER": 194.2781, "MEAN_ANOMALY": 176.9826, "EPHEMERIS_TYPE": 0, "CLASSIFICATION_TYPE": "U", "NORAD_CAT_ID": 30546, "ELEMENT_SET_NO": 999, "REV_AT_EPOCH": 310, "BSTAR": 0.0012278142, "MEAN_MOTION_DOT": 0.00011798, "MEAN_MOTION_DDOT": 0}, "tle": {"line1": "1 30546U 99025AKL 25336.83429469  .00011798  00000+0  12278-2 0  9994", "line2": "2 30546  98.9091 191.6508 0092436 194.2781 176.9826 14.86883677  3103"}}, "geometry": {"type": "Point", "coordinates": [-171.35437666158884, 28.16974168405188]}}, {"type": "Feature", "properties": {"norad_id": 30547, "name": "FENGYUN 1C DEB", "group": "fengyun-1c-debris", "lat": 48.09797343956483, "lon": 11.21278766414778, "alt_km": 785.5095599032793, "timestamp": "2025-12-04T10:51:50.382611+00:00", "meta": {"OBJECT_NAME": "FENGYUN 1C DEB", "OBJECT_ID": "1999-025AKM", "EPOCH": "2025-12-03T12:47:36.097152", "MEAN_MOTION": 14.37722491, "ECCENTRICITY": 0.00950099, "INCLINATION": 98.9028, "RA_OF_ASC_NODE": 180.2003, "ARG_OF_PERICENTER": 244.8086, "MEAN_ANOMALY": 170.2445, "EPHEMERIS_TYPE": 0, "CLASSIFICATION_TYPE": "U", "NORAD_CAT_ID": 30547, "ELEMENT_SET_NO": 999, "REV_AT_EPOCH": 98590, "BSTAR": 0.00044097386, "MEAN_MOTION_DOT": 1.347e-05, "MEAN_MOTION_DDOT": 0}, "tle": {"line1": "1 30547U 99025AKM 25337.53305668  .00001347  00000+0  44097-3 0  9991", "line2": "2 30547  98.9028 180.2003 0095009 244.8086 170.2445 14.37722491985900"}}, "geometry": {"type": "Point", "coordinates": [11.21278766414778, 48.09797343956483]}}, {"type": "Feature", "properties": {"norad_id": 30548, "name": "FENGYUN 1C DEB", "group": "fengyun-1c-debris", "lat": -7.886358883554857, "lon": -123.60732392309515, "alt_km": 756.7686409943235, "timestamp": "2025-12-04T10:51:50.382621+00:00", "meta": {"OBJECT_NAME": "FENGYUN 1C DEB", "OBJECT_ID": "1999-025AKN", "EPOCH": "2025-12-02T12:21:13.252608", "MEAN_MOTION": 14.26712418, "ECCENTRICITY": 0.00697222, "INCLINATION": 99.6819, "RA_OF_ASC_NODE": 232.896, "ARG_OF_PERICENTER": 4.095, "MEAN_ANOMALY": 119.973, "EPHEMERIS_TYPE": 0, "CLASSIFICATION_TYPE": "U", "NORAD_CAT_ID": 30548, "ELEMENT_SET_NO": 999, "REV_AT_EPOCH": 13949, "BSTAR": 0.0026062445, "MEAN_MOTION_DOT": 6.423e-05, "MEAN_MOTION_DDOT": 0}, "tle": {"line1": "1 30548U 99025AKN 25336.51473672  .00006423  00000+0  26062-2 0  9991", "line2": "2 30548  99.6819 232.8960 0069722   4.0950 119.9730 14.26712418139490"}}, "geometry": {"type": "Point", "coordinates": [-123.60732392309515, -7.886358883554857]}}, {"type": "Feature", "properties": {"norad_id": 30549, "name": "FENGYUN 1C DEB", "group": "fengyun-1c-debris", "lat": -55.80158948614612, "lon": 112.179660921927, "alt_km": 711.7656721511139, "timestamp": "2025-12-04T10:51:50.382631+00:00", "meta": {"OBJECT_NAME": "FENGYUN 1C DEB", "OBJECT_ID": "1999-025AKP", "EPOCH": "2025-12-03T07:39:14.923872", "MEAN_MOTION": 13.98584639, "ECCENTRICITY": 0.0288262, "INCLINATION": 98.4796, "RA_OF_ASC_NODE": 98.4482, "ARG_OF_PERICENTER": 283.4344, "MEAN_ANOMALY": 73.4847, "EPHEMERIS_TYPE": 0, "CLASSIFICATION_TYPE": "U", "NORAD_CAT_ID": 30549, "ELEMENT_SET_NO": 999, "REV_AT_EPOCH": 95162, "BSTAR": 0.0024216, "MEAN_MOTION_DOT": 4.917e-05, "MEAN_MOTION_DDOT": 0}, "tle": {"line1": "1 30549U 99025AKP 25337.31892273  .00004917  00000+0  24216-2 0  9998", "line2": "2 30549  98.4796  98.4482 0288262 283.4344  73.4847 13.98584639951629"}}, "geometry": {"type": "Point", "coordinates": [112.179660921927, -55.80158948614612]}}, {"type": "Feature", "properties": {"norad_id": 30550, "name": "FENGYUN 1C DEB", "group": "fengyun-1c-debris", "lat": -8.02006813442156, "lon": -124.91482605490114, "alt_km": 806.9409978560443, "timestamp": "2025-12-04T10:51:50.382641+00:00", "meta": {"OBJECT_NAME": "FENGYUN 1C DEB", "OBJECT_ID": "1999-025AKQ", "EPOCH": "2025-12-03T13:12:48.256128", "MEAN_MOTION": 14.02253813, "ECCENTRICITY": 0.01338767, "INCLINATION": 99.0538, "RA_OF_ASC_NODE": 232.9017, "ARG_OF_PERICENTER": 322.5386, "MEAN_ANOMALY": 157.1863, "EPHEMERIS_TYPE": 0, "CLASSIFICATION_TYPE": "U", "NORAD_CAT_ID": 30550, "ELEMENT_SET_NO": 999, "REV_AT_EPOCH": 95266, "BSTAR": 0.0042478508, "MEAN_MOTION_DOT": 7e-05, "MEAN_MOTION_DDOT": 0}, "tle": {"line1": "1 30550U 99025AKQ 25337.55055852  .00007000  00000+0  42479-2 0  9997", "line2": "2 30550  99.0538 232.9017 0133876 322.5386 157.1863 14.02253813952668"}}, "geometry": {"type": "Point", "coordinates": [-124.91482605490114, -8.02006813442156]}}, {"type": "Feature", "properties": {"norad_id": 30552, "name": "FENGYUN 1C DEB", "group": "fengyun-1c-debris", "lat": -62.09329203200164, "lon": -87.42190490419631, "alt_km": 709.882343211756, "timestamp": "2025-12-04T10:51:50.382651+00:00", "meta": {"OBJECT_NAME": "FENGYUN 1C DEB", "OBJECT_ID": "1999-025AKS", "EPOCH": "2025-12-02T08:12:40.902048", "MEAN_MOTION": 14.54300423, "ECCENTRICITY": 0.00141637, "INCLINATION": 98.8343, "RA_OF_ASC_NODE": 107.4277, "ARG_OF_PERICENTER": 280.0643, "MEAN_ANOMALY": 79.8953, "EPHEMERIS_TYPE": 0, "CLASSIFICATION_TYPE": "U", "NORAD_CAT_ID": 30552, "ELEMENT_SET_NO": 999, "REV_AT_EPOCH": 97501, "BSTAR": 0.0039430765, "MEAN_MOTION_DOT": 0.00016739, "MEAN_MOTION_DDOT": 0}, "tle": {"line1": "1 30552U 99025AKS 25336.34214007  .00016739  00000+0  39431-2 0  9997", "line2": "2 30552  98.8343 107.4277 0014163 280.0643  79.8953 14.54300423975017"}}, "geometry": {"type": "Point", "coordinates": [-87.42190490419631, -62.09329203200164]}}, {"type": "Feature", "properties": {"norad_id": 30553, "name": "FENGYUN 1C DEB", "group": "fengyun-1c-debris", "lat": 38.39142729353641, "lon": -100.34207074859508, "alt_km": 640.1324352691281, "timestamp": "2025-12-04T10:51:50.382661+00:00", "meta": {"OBJECT_NAME": "FENGYUN 1C DEB", "OBJECT_ID": "1999-025AKT", "EPOCH": "2025-12-03T04:51:10.563840", "MEAN_MOTION": 14.7160039, "ECCENTRICITY": 0.0021802, "INCLINATION": 99.1303, "RA_OF_ASC_NODE": 70.9355, "ARG_OF_PERICENTER": 178.8578, "MEAN_ANOMALY": 181.2679, "EPHEMERIS_TYPE": 0, "CLASSIFICATION_TYPE": "U", "NORAD_CAT_ID": 30553, "ELEMENT_SET_NO": 999, "REV_AT_EPOCH": 98333, "BSTAR": 0.0048732155, "MEAN_MOTION_DOT": 0.00030493, "MEAN_MOTION_DDOT": 0}, "tle": {"line1": "1 30553U 99025AKT 25337.20220560  .00030493  00000+0  48732-2 0  9992", "line2": "2 30553  99.1303  70.9355 0021802 178.8578 181.2679 14.71600390983330"}}, "geometry": {"type": "Point", "coordinates": [-100.34207074859508, 38.39142729353641]}}, {"type": "Feature", "properties": {"norad_id": 30555, "name": "FENGYUN 1C DEB", "group": "fengyun-1c-debris", "lat": 14.928720487864643, "lon": 29.699950977606434, "alt_km": 817.9819642035363, "timestamp": "2025-12-04T10:51:50.382671+00:00", "meta": {"OBJECT_NAME": "FENGYUN 1C DEB", "OBJECT_ID": "1999-025AKV", "EPOCH": "2025-12-03T22:07:03.222048", "MEAN_MOTION": 14.20727461, "ECCENTRICITY": 0.0042061, "INCLINATION": 98.7587, "RA_OF_ASC_NODE": 31.5295, "ARG_OF_PERICENTER": 297.3106, "MEAN_ANOMALY": 242.5784, "EPHEMERIS_TYPE": 0, "CLASSIFICATION_TYPE": "U", "NORAD_CAT_ID": 30555, "ELEMENT_SET_NO": 999, "REV_AT_EPOCH": 96810, "BSTAR": 0.0025690787, "MEAN_MOTION_DOT": 5.549e-05, "MEAN_MOTION_DDOT": 0}, "tle": {"line1": "1 30555U 99025AKV 25337.92156507  .00005549  00000+0  25691-2 0  9995", "line2": "2 30555  98.7587  31.5295 0042061 297.3106 242.5784 14.20727461968100"}}, "geometry": {"type": "Point", "coordinates": [29.699950977606434, 14.928720487864643]}}]}